[{"OBJECT_NAME":"DMSP 5D-3 F18 (USA 210)","OBJECT_ID":"2009-057A","EPOCH":"2026-03-09T22:11:19.578624","MEAN_MOTION":14.14835918,"ECCENTRICITY":0.00111332,"INCLINATION":98.8964,"RA_OF_ASC_NODE":49.953,"ARG_OF_PERICENTER":167.567,"MEAN_ANOMALY":192.578,"EPHEMERIS_TYPE":0,"CLASSIFICATION_TYPE":"U","NORAD_CAT_ID":35951,"ELEMENT_SET_NO":999,"REV_AT_EPOCH":84555,"BSTAR":0.0001892164,"MEAN_MOTION_DOT":3.21e-6,"MEAN_MOTION_DDOT":0},{"OBJECT_NAME":"METEOR 1-27","OBJECT_ID":"1977-024A","EPOCH":"2026-03-09T23:17:31.531776","MEAN_MOTION":14.08733691,"ECCENTRICITY":0.00369171,"INCLINATION":81.2736,"RA_OF_ASC_NODE":233.6532,"ARG_OF_PERICENTER":283.3266,"MEAN_ANOMALY":76.3789,"EPHEMERIS_TYPE":0,"CLASSIFICATION_TYPE":"U","NORAD_CAT_ID":9903,"ELEMENT_SET_NO":999,"REV_AT_EPOCH":51358,"BSTAR":3.7759636e-5,"MEAN_MOTION_DOT":7.8e-7,"MEAN_MOTION_DDOT":0}]
